{
  "name": "GALILEO",
  "date": "2020-03-06 15:56:45 CET",
  "tles": [{
    "GSAT0101 (PRN E11)": [
      "1 37846U 11060A   20065.12670938 -.00000028  00000-0  00000-0 0  9996",
      "2 37846  56.5629  44.1513 0004861 324.7336  35.2375  1.70475433 51991"
    ],
    "GSAT0102 (PRN E12)": [
      "1 37847U 11060B   20065.35604979 -.00000028  00000-0  00000-0 0  9994",
      "2 37847  56.5644  44.1441 0006444 310.4238 236.3506  1.70475489 52005"
    ],
    "GSAT0103 (PRN E19)": [
      "1 38857U 12055A   20063.40917024  .00000006  00000-0  00000+0 0  9997",
      "2 38857  54.9620 164.7005 0003064 256.5233 103.4488  1.70473684 46009"
    ],
    "GSAT0104 (PRN E20)": [
      "1 38858U 12055B   20064.51666359  .00000002  00000-0  00000-0 0  9990",
      "2 38858  54.9629 164.6695 0001892 261.5684  98.4140  1.70473580 46021"
    ],
    "GSAT0201 (PRN E18)": [
      "1 40128U 14050A   20065.37252999 -.00000080  00000-0  00000-0 0  9993",
      "2 40128  50.5796   5.5253 1663163  95.9178 283.1829  1.85518749 35777"
    ],
    "GSAT0202 (PRN E14)": [
      "1 40129U 14050B   20065.09767144 -.00000080  00000-0  00000-0 0  9996",
      "2 40129  50.6186   4.5691 1661506  96.7387 282.3480  1.85519411 37905"
    ],
    "GSAT0203 (PRN E26)": [
      "1 40544U 15017A   20065.49364317 -.00000029  00000-0  00000+0 0  9992",
      "2 40544  56.3559  44.2896 0005297 273.5242  86.4180  1.70474733 30740"
    ],
    "GSAT0204 (PRN E22)": [
      "1 40545U 15017B   20065.27517432 -.00000028  00000-0  00000+0 0  9996",
      "2 40545  56.3626  44.3109 0002845 264.6797  95.2911  1.70474939 30744"
    ],
    "GSAT0205 (PRN E24)": [
      "1 40889U 15045A   20064.93215750  .00000038  00000-0  00000+0 0  9998",
      "2 40889  56.2344 284.9756 0005316  24.3444 335.7400  1.70474829 27881"
    ],
    "GSAT0206 (PRN E30)": [
      "1 40890U 15045B   20065.73834363  .00000040  00000-0  00000+0 0  9999",
      "2 40890  56.2332 284.9499 0003540  24.0952 335.9824  1.70474914 27924"
    ],
    "GSAT0209 (PRN E09)": [
      "1 41174U 15079A   20065.32365316 -.00000001  00000-0  00000+0 0  9992",
      "2 41174  54.9766 164.3447 0004130 309.2543  50.7127  1.70473819 26234"
    ],
    "GSAT0208 (PRN E08)": [
      "1 41175U 15079B   20063.19710862  .00000007  00000-0  00000-0 0  9992",
      "2 41175  54.9747 164.4029 0003226 311.0063  48.9732  1.70473921 26206"
    ],
    "GSAT0211 (PRN E02)": [
      "1 41549U 16030A   20065.66579571  .00000040  00000-0  00000+0 0  9995",
      "2 41549  56.3749 284.7976 0003388 349.4093  10.6445  1.70474575 23539"
    ],
    "GSAT0210 (PRN E01)": [
      "1 41550U 16030B   20064.19902932  .00000036  00000-0  00000+0 0  9990",
      "2 41550  56.3759 284.8396 0001781 325.8789  34.1668  1.70474695 23502"
    ],
    "GSAT0207 (PRN E07)": [
      "1 41859U 16069A   20062.68373096  .00000008  00000-0  00000-0 0  9999",
      "2 41859  54.6342 164.8067 0003862 294.5409  65.4266  1.70473786 20393"
    ],
    "GSAT0212 (PRN E03)": [
      "1 41860U 16069B   20064.88350101  .00000000  00000-0  00000-0 0  9999",
      "2 41860  54.6323 164.7448 0003000 320.3533  39.6278  1.70473789 20520"
    ],
    "GSAT0213 (PRN E04)": [
      "1 41861U 16069C   20062.31649493  .00000009  00000-0  00000+0 0  9999",
      "2 41861  54.6347 164.8199 0003145 267.6256  92.3469  1.70473877 20487"
    ],
    "GSAT0214 (PRN E05)": [
      "1 41862U 16069D   20063.05006654  .00000007  00000-0  00000-0 0  9997",
      "2 41862  54.6327 164.7951 0002366 274.0251  85.9547  1.70473974 20485"
    ],
    "GSAT0215 (PRN E21)": [
      "1 43055U 17079A   20064.12628967  .00000036  00000-0  00000-0 0  9993",
      "2 43055  56.3507 284.6854 0001212 341.2897  18.7626  1.70473856 13849"
    ],
    "GSAT0216 (PRN E25)": [
      "1 43056U 17079B   20065.59230426  .00000040  00000-0  00000+0 0  9999",
      "2 43056  56.3502 284.6446 0002599 298.3288  61.7055  1.70473986 13856"
    ],
    "GSAT0217 (PRN E27)": [
      "1 43057U 17079C   20064.05257147  .00000036  00000-0  00000+0 0  9994",
      "2 43057  56.3497 284.6877 0002712 319.6161  40.4204  1.70473884 13848"
    ],
    "GSAT0218 (PRN E31)": [
      "1 43058U 17079D   20063.09936303  .00000032  00000-0  00000-0 0  9993",
      "2 43058  56.3504 284.7115 0002926 288.7233  71.2988  1.70473957 13850"
    ],
    "GSAT0221 (PRN E15)": [
      "1 43564U 18060A   20062.99931245 -.00000030  00000-0  00000-0 0  9993",
      "2 43564  56.7423  43.9579 0006371 283.2852  76.6479  1.70475870 10004"
    ],
    "GSAT0222 (PRN E33)": [
      "1 43565U 18060B   20066.15208029 -.00000029  00000-0  00000+0 0  9990",
      "2 43565  56.7476  43.8707 0006184 290.2523  69.6811  1.70475766 10107"
    ],
    "GSAT0219 (PRN E36)": [
      "1 43566U 18060C   20064.02594696 -.00000028  00000-0  00000-0 0  9993",
      "2 43566  56.7465  43.9306 0005816 286.8217  73.1188  1.70475726 10040"
    ],
    "GSAT0220 (PRN E13)": [
      "1 43567U 18060D   20065.41898351 -.00000028  00000-0  00000+0 0  9992",
      "2 43567  56.7469  43.8934 0005974 287.7592  72.1778  1.70475659 10041"
    ]
  }]
}
